LEMUR-2-PETERG          
1 42841U 17042S   26068.48235713  .00023240  00000+0  81076-3 0  9993
2 42841  97.3980 253.6596 0003700 341.6938  18.4169 15.29611459473171
STARLINK-33686          
1 63422U 25065Z   26068.45906546  .00027476  00000+0  10038-2 0  9995
2 63422  42.9974 108.4015 0001265 261.5870  98.4839 15.27595088 52802
